STARLINK-36773          
1 67801U 26032E   26063.16670139 -.00035567  00000+0 -23861-3 0  9995
2 67801  97.2838 249.3903 0001491  91.3891 297.2162 15.75187130  3838
STARLINK-36739          
1 67802U 26032F   26063.14576528  .00205157  00000+0  10416-2 0  9994
2 67802  97.2841 249.4050 0001246  88.5871 271.5540 15.80924847  3915
STARLINK-36768          
1 67803U 26032G   26063.16670139  .00058619  00000+0  39192-3 0  9992
2 67803  97.2838 249.4044 0001575  95.3037 327.3079 15.75145886  3896
STARLINK-36792          
1 67804U 26032H   26063.16670139 -.00018247  00000+0 -12177-3 0  9992
2 67804  97.2837 249.3978 0001628  78.1665 330.4368 15.75180799  3838
STARLINK-36782          
1 67805U 26032J   26063.14404008  .00299669  00000+0  15023-2 0  9990
2 67805  97.2834 249.4068 0001426  86.6252 273.5179 15.80958294  3914
STARLINK-36389          
1 67806U 26032K   26063.16670139 -.00019589  00000+0 -13075-3 0  9992
2 67806  97.2838 249.4246 0001840  85.6213  26.9546 15.75191211  3890
STARLINK-36382          
1 67807U 26032L   26063.16670139 -.00054666  00000+0 -36755-3 0  9998
2 67807  97.2839 249.4290 0001900  83.1959  41.3539 15.75215109  3838
STARLINK-36811          
1 67808U 26032M   26063.14073360  .00162383  00000+0  82944-3 0  9995
2 67808  97.2833 249.4109 0001647  65.1467 294.9973 15.80904516  3914
STARLINK-36795          
1 67809U 26032N   26063.16670139 -.00018062  00000+0 -12047-3 0  9998
2 67809  97.2840 249.4123 0001423  74.5963   9.9927 15.75190618  3890
STARLINK-36807          
1 67810U 26032P   26063.13867252  .00161301  00000+0  82425-3 0  9991
2 67810  97.2833 249.4124 0001523  60.9305 299.2116 15.80898466  3914
STARLINK-36733          
1 67811U 26032Q   26063.13743002  .00232202  00000+0  11752-2 0  9991
2 67811  97.2831 249.4136 0001273  71.2533 288.8874 15.80923570  3916
STARLINK-36377          
1 67812U 26032R   26063.13425874  .00212599  00000+0  10786-2 0  9999
2 67812  97.2834 249.4183 0001563  75.9115 284.2327 15.80921777  3911
